{
  "type": "FeatureCollection",
  "features": [
    {
      "type": "Feature",
      "properties": {
        "norad_id": 66604,
        "name": "STARLINK-35977",
        "group": "last-30-days",
        "lat": 0.7511933693806848,
        "lon": -23.934567514213654,
        "alt_km": 443.8521646288373,
        "timestamp": "2025-12-18T21:31:49.698793+00:00",
        "meta_object_name": "STARLINK-35977",
        "meta_object_id": "2025-270S",
        "meta_epoch": "2025-12-18T06:00:02.999808",
        "meta_mean_motion": 15.40682206,
        "meta_eccentricity": 0.00019845,
        "meta_inclination": 42.9997,
        "meta_ra_of_asc_node": 160.6013,
        "meta_arg_of_pericenter": 270.6974,
        "meta_mean_anomaly": 274.9126,
        "meta_ephemeris_type": 0,
        "meta_classification_type": "U",
        "meta_norad_cat_id": 66604,
        "meta_element_set_no": 999,
        "meta_rev_at_epoch": 528,
        "meta_bstar": 0.00038895676,
        "meta_mean_motion_dot": 0.00015969,
        "meta_mean_motion_ddot": 0,
        "tle_line1": "1 66604U 25270S   25352.25003472  .00015969  00000+0  38896-3 0  9994",
        "tle_line2": "2 66604  42.9997 160.6013 0001984 270.6974 274.9126 15.40682206  5288"
      },
      "geometry": {
        "type": "Point",
        "coordinates": [
          -23.934567514213654,
          0.7511933693806848
        ]
      }
    },
    {
      "type": "Feature",
      "properties": {
        "norad_id": 66605,
        "name": "STARLINK-36052",
        "group": "last-30-days",
        "lat": -42.71673370135239,
        "lon": 58.91577881787273,
        "alt_km": 422.9893294365029,
        "timestamp": "2025-12-18T21:31:49.698803+00:00",
        "meta_object_name": "STARLINK-36052",
        "meta_object_id": "2025-270T",
        "meta_epoch": "2025-12-17T13:26:50.242272",
        "meta_mean_motion": 15.49687619,
        "meta_eccentricity": 0.00016984,
        "meta_inclination": 42.9991,
        "meta_ra_of_asc_node": 164.4677,
        "meta_arg_of_pericenter": 286.8889,
        "meta_mean_anomaly": 73.1785,
        "meta_ephemeris_type": 0,
        "meta_classification_type": "U",
        "meta_norad_cat_id": 66605,
        "meta_element_set_no": 999,
        "meta_rev_at_epoch": 509,
        "meta_bstar": -0.006954421,
        "meta_mean_motion_dot": -0.00377141,
        "meta_mean_motion_ddot": 0,
        "tle_line1": "1 66605U 25270T   25351.56030373 -.00377141  00000+0 -69544-2 0  9996",
        "tle_line2": "2 66605  42.9991 164.4677 0001698 286.8889  73.1785 15.49687619  5098"
      },
      "geometry": {
        "type": "Point",
        "coordinates": [
          58.91577881787273,
          -42.71673370135239
        ]
      }
    },
    {
      "type": "Feature",
      "properties": {
        "norad_id": 66606,
        "name": "STARLINK-36063",
        "group": "last-30-days",
        "lat": -42.67937004397151,
        "lon": 74.91107872721307,
        "alt_km": 416.7474696127683,
        "timestamp": "2025-12-18T21:31:49.698813+00:00",
        "meta_object_name": "STARLINK-36063",
        "meta_object_id": "2025-270U",
        "meta_epoch": "2025-12-17T22:42:11.692224",
        "meta_mean_motion": 15.50601756,
        "meta_eccentricity": 0.00016763,
        "meta_inclination": 42.9989,
        "meta_ra_of_asc_node": 162.2001,
        "meta_arg_of_pericenter": 270.011,
        "meta_mean_anomaly": 90.0558,
        "meta_ephemeris_type": 0,
        "meta_classification_type": "U",
        "meta_norad_cat_id": 66606,
        "meta_element_set_no": 999,
        "meta_rev_at_epoch": 515,
        "meta_bstar": 0.0013751812,
        "meta_mean_motion_dot": 0.00081242,
        "meta_mean_motion_ddot": 0,
        "tle_line1": "1 66606U 25270U   25351.94596866  .00081242  00000+0  13752-2 0  9995",
        "tle_line2": "2 66606  42.9989 162.2001 0001676 270.0110  90.0558 15.50601756  5154"
      },
      "geometry": {
        "type": "Point",
        "coordinates": [
          74.91107872721307,
          -42.67937004397151
        ]
      }
    },
    {
      "type": "Feature",
      "properties": {
        "norad_id": 66607,
        "name": "STARLINK-35993",
        "group": "last-30-days",
        "lat": -42.13907068768673,
        "lon": 52.84142590072499,
        "alt_km": 434.47595701151295,
        "timestamp": "2025-12-18T21:31:49.698823+00:00",
        "meta_object_name": "STARLINK-35993",
        "meta_object_id": "2025-270V",
        "meta_epoch": "2025-12-18T06:00:02.999808",
        "meta_mean_motion": 15.47587223,
        "meta_eccentricity": 0.00012447,
        "meta_inclination": 42.9996,
        "meta_ra_of_asc_node": 160.4354,
        "meta_arg_of_pericenter": 248.3892,
        "meta_mean_anomaly": 5.4844,
        "meta_ephemeris_type": 0,
        "meta_classification_type": "U",
        "meta_norad_cat_id": 66607,
        "meta_element_set_no": 999,
        "meta_rev_at_epoch": 518,
        "meta_bstar": -0.04457484,
        "meta_mean_motion_dot": -0.02089009,
        "meta_mean_motion_ddot": 0,
        "tle_line1": "1 66607U 25270V   25352.25003472 -.02089009  00000+0 -44575-1 0  9996",
        "tle_line2": "2 66607  42.9996 160.4354 0001244 248.3892   5.4844 15.47587223  5189"
      },
      "geometry": {
        "type": "Point",
        "coordinates": [
          52.84142590072499,
          -42.13907068768673
        ]
      }
    },
    {
      "type": "Feature",
      "properties": {
        "norad_id": 66608,
        "name": "STARLINK-36036",
        "group": "last-30-days",
        "lat": -42.47117717460274,
        "lon": 77.39606511045083,
        "alt_km": 416.96590780322185,
        "timestamp": "2025-12-18T21:31:49.698833+00:00",
        "meta_object_name": "STARLINK-36036",
        "meta_object_id": "2025-270W",
        "meta_epoch": "2025-12-17T22:41:41.967168",
        "meta_mean_motion": 15.50612023,
        "meta_eccentricity": 0.00015717,
        "meta_inclination": 42.9988,
        "meta_ra_of_asc_node": 162.1971,
        "meta_arg_of_pericenter": 270.485,
        "meta_mean_anomaly": 89.583,
        "meta_ephemeris_type": 0,
        "meta_classification_type": "U",
        "meta_norad_cat_id": 66608,
        "meta_element_set_no": 999,
        "meta_rev_at_epoch": 499,
        "meta_bstar": 0.00079368877,
        "meta_mean_motion_dot": 0.00046553,
        "meta_mean_motion_ddot": 0,
        "tle_line1": "1 66608U 25270W   25351.94562462  .00046553  00000+0  79369-3 0  9995",
        "tle_line2": "2 66608  42.9988 162.1971 0001571 270.4850  89.5830 15.50612023  4995"
      },
      "geometry": {
        "type": "Point",
        "coordinates": [
          77.39606511045083,
          -42.47117717460274
        ]
      }
    },
    {
      "type": "Feature",
      "properties": {
        "norad_id": 66609,
        "name": "STARLINK-36034",
        "group": "last-30-days",
        "lat": -42.188768796959316,
        "lon": 80.03906600943702,
        "alt_km": 416.8829061761817,
        "timestamp": "2025-12-18T21:31:49.698847+00:00",
        "meta_object_name": "STARLINK-36034",
        "meta_object_id": "2025-270X",
        "meta_epoch": "2025-12-17T22:41:12.262848",
        "meta_mean_motion": 15.50621431,
        "meta_eccentricity": 0.00015735,
        "meta_inclination": 42.9987,
        "meta_ra_of_asc_node": 162.1953,
        "meta_arg_of_pericenter": 271.4905,
        "meta_mean_anomaly": 88.5774,
        "meta_ephemeris_type": 0,
        "meta_classification_type": "U",
        "meta_norad_cat_id": 66609,
        "meta_element_set_no": 999,
        "meta_rev_at_epoch": 499,
        "meta_bstar": 0.00092870074,
        "meta_mean_motion_dot": 0.00054605,
        "meta_mean_motion_ddot": 0,
        "tle_line1": "1 66609U 25270X   25351.94528082  .00054605  00000+0  92870-3 0  9995",
        "tle_line2": "2 66609  42.9987 162.1953 0001573 271.4905  88.5774 15.50621431  4998"
      },
      "geometry": {
        "type": "Point",
        "coordinates": [
          80.03906600943702,
          -42.188768796959316
        ]
      }
    },
    {
      "type": "Feature",
      "properties": {
        "norad_id": 66610,
        "name": "STARLINK-35680",
        "group": "last-30-days",
        "lat": -41.874836401153935,
        "lon": 82.45374931349473,
        "alt_km": 416.9845912777437,
        "timestamp": "2025-12-18T21:31:49.698860+00:00",
        "meta_object_name": "STARLINK-35680",
        "meta_object_id": "2025-270Y",
        "meta_epoch": "2025-12-17T22:40:42.721824",
        "meta_mean_motion": 15.50607868,
        "meta_eccentricity": 0.00015535,
        "meta_inclination": 42.9988,
        "meta_ra_of_asc_node": 162.192,
        "meta_arg_of_pericenter": 273.7525,
        "meta_mean_anomaly": 86.3157,
        "meta_ephemeris_type": 0,
        "meta_classification_type": "U",
        "meta_norad_cat_id": 66610,
        "meta_element_set_no": 999,
        "meta_rev_at_epoch": 526,
        "meta_bstar": 0.00073599094,
        "meta_mean_motion_dot": 0.00043118,
        "meta_mean_motion_ddot": 0,
        "tle_line1": "1 66610U 25270Y   25351.94493891  .00043118  00000+0  73599-3 0  9990",
        "tle_line2": "2 66610  42.9988 162.1920 0001553 273.7525  86.3157 15.50607868  5266"
      },
      "geometry": {
        "type": "Point",
        "coordinates": [
          82.45374931349473,
          -41.874836401153935
        ]
      }
    }
  ]
}